LEMUR-2-ANDIS           
1 42838U 17042P   26068.55941107  .00023598  00000+0  79875-3 0  9998
2 42838  97.3659 249.7950 0009101   4.3248 355.8070 15.30557934473198
STARLINK-32930          
1 63203U 25048W   26068.06567018  .00043347  00000+0  15742-2 0  9999
2 63203  43.0008  89.1017 0003608 284.5445  75.5006 15.27604161 56991
